[{"OBJECT_NAME":"STARLINK-30545","OBJECT_ID":"2023-153K","EPOCH":"2026-03-09T09:04:12.550656","MEAN_MOTION":15.26741829,"ECCENTRICITY":0.00012085,"INCLINATION":42.9998,"RA_OF_ASC_NODE":68.3822,"ARG_OF_PERICENTER":226.2346,"MEAN_ANOMALY":133.8405,"EPHEMERIS_TYPE":0,"CLASSIFICATION_TYPE":"U","NORAD_CAT_ID":58000,"ELEMENT_SET_NO":999,"REV_AT_EPOCH":13485,"BSTAR":-2.9325451e-5,"MEAN_MOTION_DOT":-1.046e-5,"MEAN_MOTION_DDOT":0},{"OBJECT_NAME":"FLOCK 4G-6","OBJECT_ID":"2025-009BD","EPOCH":"2026-03-09T17:03:16.973568","MEAN_MOTION":15.27432125,"ECCENTRICITY":0.00023795,"INCLINATION":97.398,"RA_OF_ASC_NODE":150.7943,"ARG_OF_PERICENTER":348.2637,"MEAN_ANOMALY":11.8546,"EPHEMERIS_TYPE":0,"CLASSIFICATION_TYPE":"U","NORAD_CAT_ID":62660,"ELEMENT_SET_NO":999,"REV_AT_EPOCH":12130,"BSTAR":0.00045909501,"MEAN_MOTION_DOT":0.00012261,"MEAN_MOTION_DDOT":0}]
